NORAD_CAT_ID,OBJECT_NAME,OBJECT_TYPE,EPOCH,MEAN_MOTION,ECCENTRICITY,INCLINATION,RA_OF_ASC_NODE,ARG_OF_PERICENTER,MEAN_ANOMALY,BSTAR,MEAN_MOTION_DOT,MEAN_MOTION_DDOT,TLE_LINE0,TLE_LINE1,TLE_LINE2,SEMIMAJOR_AXIS,PERIOD,APOGEE,PERIGEE,DECAYED
53401.0,STARLINK-4525,PAYLOAD,2023-08-25 17:15:54,15.08847594,0.0001368,53.2162,325.4512,100.7026,259.4121,0.00027019,4.016e-05,0.0,0 STARLINK-4525,1 53401U 22097P   23237.71938127  .00004016  00000-0  27019-3 0  9991,2 53401  53.2162 325.4512 0001368 100.7026 259.4121 15.08847594 58086,6917.857,95.437,540.669,538.776,0.0
53401.0,STARLINK-4525,PAYLOAD,2023-08-26 10:45:09,15.08840067,0.0001379,53.2173,322.182,74.0696,286.0448,0.00017476,2.494e-05,0.0,0 STARLINK-4525,1 53401U 22097P   23238.44802748  .00002494  00000-0  17476-3 0  9995,2 53401  53.2173 322.1820 0001379  74.0696 286.0448 15.08840067 58190,6917.88,95.438,540.699,538.791,0.0
53401.0,STARLINK-4525,PAYLOAD,2023-08-26 12:20:32,15.08843386,0.0001421,53.2176,321.885,71.6647,288.45,0.00023547,3.462e-05,0.0,0 STARLINK-4525,1 53401U 22097P   23238.51426661  .00003462  00000-0  23547-3 0  9991,2 53401  53.2176 321.8850 0001421  71.6647 288.4500 15.08843386 58696,6917.87,95.437,540.718,538.752,0.0
53401.0,STARLINK-4525,PAYLOAD,2023-08-26 15:31:18,15.08846793,0.0001404,53.2174,321.2884,93.3641,266.7512,0.00030576,4.582e-05,0.0,0 STARLINK-4525,1 53401U 22097P   23238.64674438  .00004582  00000-0  30576-3 0  9996,2 53401  53.2174 321.2884 0001404  93.3641 266.7512 15.08846793 58711,6917.86,95.437,540.696,538.753,0.0
53401.0,STARLINK-4525,PAYLOAD,2023-08-27 09:00:33,15.0884639,0.0001441,53.2173,318.0169,95.0949,265.0207,0.00020655,3.001e-05,0.0,0 STARLINK-4525,1 53401U 22097P   23239.37538423  .00003001  00000-0  20655-3 0  9992,2 53401  53.2173 318.0169 0001441  95.0949 265.0207 15.08846390 58829,6917.861,95.437,540.723,538.729,0.0
53401.0,STARLINK-4525,PAYLOAD,2023-08-27 13:46:42,15.08847766,0.0001399,53.2175,317.125,95.7264,264.3887,0.00022415,3.282e-05,0.0,0 STARLINK-4525,1 53401U 22097P   23239.57410324  .00003282  00000-0  22415-3 0  9990,2 53401  53.2175 317.1250 0001399  95.7264 264.3887 15.08847766 58364,6917.857,95.437,540.689,538.754,0.0
53401.0,STARLINK-4525,PAYLOAD,2023-08-28 08:51:20,15.08835721,0.0001456,53.2175,313.5575,94.6255,265.4903,-2.5459e-05,-6.93e-06,0.0,0 STARLINK-4525,1 53401U 22097P   23240.36898863 -.00000693  00000-0 -25459-4 0  9994,2 53401  53.2175 313.5575 0001456  94.6255 265.4903 15.08835721 58488,6917.893,95.438,540.766,538.751,0.0
53401.0,STARLINK-4525,PAYLOAD,2023-08-28 13:37:30,15.08838479,0.0001436,53.2174,312.6658,92.2646,267.8511,5.2112e-05,5.41e-06,0.0,0 STARLINK-4525,1 53401U 22097P   23240.56770861  .00000541  00000-0  52112-4 0  9999,2 53401  53.2174 312.6658 0001436  92.2646 267.8511 15.08838479 59008,6917.885,95.438,540.743,538.757,0.0
53401.0,STARLINK-4525,PAYLOAD,2023-08-29 15:03:39,15.08848232,0.0001438,53.2171,307.9082,91.6202,268.4955,0.00016585,2.353e-05,0.0,0 STARLINK-4525,1 53401U 22097P   23241.62754354  .00002353  00000-0  16585-3 0  9992,2 53401  53.2171 307.9082 0001438  91.6202 268.4955 15.08848232 58675,6917.855,95.437,540.715,538.725,0.0
53401.0,STARLINK-4525,PAYLOAD,2023-08-30 08:32:54,15.08836351,0.000141,53.2169,304.6375,93.08,267.0354,6.5835e-05,7.6e-06,0.0,0 STARLINK-4525,1 53401U 22097P   23242.35619117  .00000760  00000-0  65835-4 0  9993,2 53401  53.2169 304.6375 0001410  93.0800 267.0354 15.08836351 58780,6917.892,95.438,540.732,538.781,0.0
53401.0,STARLINK-4525,PAYLOAD,2023-08-30 16:29:50,15.08843239,0.0001485,53.2166,303.1499,88.4992,271.6171,0.00015306,2.149e-05,0.0,0 STARLINK-4525,1 53401U 22097P   23242.68738853  .00002149  00000-0  15306-3 0  9998,2 53401  53.2166 303.1499 0001485  88.4992 271.6171 15.08843239 59322,6917.87,95.437,540.763,538.708,0.0
53401.0,STARLINK-4525,PAYLOAD,2023-08-30 22:51:23,15.08839828,0.0001439,53.2163,301.96,90.4701,269.6456,6.2499e-05,7.07e-06,0.0,0 STARLINK-4525,1 53401U 22097P   23242.95234993  .00000707  00000-0  62499-4 0  9998,2 53401  53.2163 301.9600 0001439  90.4701 269.6456 15.08839828 59365,6917.881,95.438,540.741,538.75,0.0
53401.0,STARLINK-4525,PAYLOAD,2023-08-31 22:42:07,15.08909434,0.000224,53.216,297.5005,127.2523,232.8674,0.0011593,0.00018246,0.0,0 STARLINK-4525,1 53401U 22097P   23243.94591559  .00018246  00000-0  11593-2 0  9996,2 53401  53.2160 297.5005 0002240 127.2523 232.8674 15.08909434 59021,6917.668,95.433,541.083,537.984,0.0
53401.0,STARLINK-4525,PAYLOAD,2023-09-01 09:49:52,15.08837351,0.0001005,53.2163,295.4215,85.3284,274.7823,0.00032395,4.871e-05,0.0,0 STARLINK-4525,1 53401U 22097P   23244.40963315  .00004871  00000-0  32395-3 0  9994,2 53401  53.2163 295.4215 0001005  85.3284 274.7823 15.08837351 59096,6917.888,95.438,540.449,539.058,0.0
53401.0,STARLINK-4525,PAYLOAD,2023-09-01 13:00:38,15.08842607,0.0001617,53.2151,294.8232,93.3508,266.7669,9.9169e-05,1.291e-05,0.0,0 STARLINK-4525,1 53401U 22097P   23244.54211020  .00001291  00000-0  99169-4 0  9994,2 53401  53.2151 294.8232 0001617  93.3508 266.7669 15.08842607 59608,6917.872,95.437,540.856,538.619,0.0
53401.0,STARLINK-4525,PAYLOAD,2023-09-01 20:57:34,15.08842693,0.0001661,53.2159,293.3391,74.6395,285.478,8.2145e-06,-1.57e-06,0.0,0 STARLINK-4525,1 53401U 22097P   23244.87331080 -.00000157  00000-0  82145-5 0  9997,2 53401  53.2159 293.3391 0001661  74.6395 285.4780 15.08842693 59653,6917.872,95.437,540.886,538.588,0.0
53401.0,STARLINK-4525,PAYLOAD,2023-09-03 09:31:25,15.08847501,0.0001189,53.2151,286.4975,84.8551,275.2576,0.00017529,2.504e-05,0.0,0 STARLINK-4525,1 53401U 22097P   23246.39682575  .00002504  00000-0  17529-3 0  9993,2 53401  53.2151 286.4975 0001189  84.8551 275.2576 15.08847501 59392,6917.857,95.437,540.545,538.9,0.0
53401.0,STARLINK-4525,PAYLOAD,2023-09-04 03:00:41,15.0882786,0.0001292,53.2166,283.2256,91.7634,268.3506,-9.1702e-05,-1.747e-05,0.0,0 STARLINK-4525,1 53401U 22097P   23247.12547625 -.00001747  00000-0 -91702-4 0  9997,2 53401  53.2166 283.2256 0001292  91.7634 268.3506 15.08827860 59504,6917.917,95.438,540.676,538.889,0.0
53401.0,STARLINK-4525,PAYLOAD,2023-09-04 09:22:13,15.08832741,0.0001456,53.2155,282.0362,92.7113,267.4045,-2.1133e-05,-6.24e-06,0.0,0 STARLINK-4525,1 53401U 22097P   23247.39043515 -.00000624  00000-0 -21133-4 0  9999,2 53401  53.2155 282.0362 0001456  92.7113 267.4045 15.08832741 60034,6917.903,95.438,540.775,538.76,0.0
53401.0,STARLINK-4525,PAYLOAD,2023-09-04 18:54:32,15.08834668,0.0001414,53.2158,280.2524,93.6398,266.4756,1.614e-05,-3.1e-07,0.0,0 STARLINK-4525,1 53401U 22097P   23247.78787576 -.00000031  00000-0  16140-4 0  9997,2 53401  53.2158 280.2524 0001414  93.6398 266.4756 15.08834668 59605,6917.897,95.438,540.74,538.783,0.0
53401.0,STARLINK-4525,PAYLOAD,2023-09-05 12:23:46,15.08840892,0.0001422,53.2158,276.9811,92.8893,267.2262,0.00012155,1.647e-05,0.0,0 STARLINK-4525,1 53401U 22097P   23248.51651493  .00001647  00000-0  12155-3 0  9991,2 53401  53.2158 276.9811 0001422  92.8893 267.2262 15.08840892 60201,6917.878,95.437,540.726,538.759,0.0
53401.0,STARLINK-4525,PAYLOAD,2023-09-06 01:06:52,15.08837514,0.000144,53.2156,274.6024,96.6339,263.4817,0.00026886,3.993e-05,0.0,0 STARLINK-4525,1 53401U 22097P   23249.04643938  .00003993  00000-0  26886-3 0  9997,2 53401  53.2156 274.6024 0001440  96.6339 263.4817 15.08837514 59790,6917.888,95.438,540.749,538.757,0.0
53401.0,STARLINK-4525,PAYLOAD,2023-09-06 10:39:11,15.08841263,0.0001416,53.2157,272.8183,97.5788,262.5365,0.00019566,2.827e-05,0.0,0 STARLINK-4525,1 53401U 22097P   23249.44387798  .00002827  00000-0  19566-3 0  9992,2 53401  53.2157 272.8183 0001416  97.5788 262.5365 15.08841263 60345,6917.877,95.437,540.721,538.762,0.0
53401.0,STARLINK-4525,PAYLOAD,2023-09-06 18:36:06,15.08842421,0.0001407,53.2159,271.3308,92.722,267.3933,0.00017294,2.466e-05,0.0,0 STARLINK-4525,1 53401U 22097P   23249.77507781  .00002466  00000-0  17294-3 0  9999,2 53401  53.2159 271.3308 0001407  92.7220 267.3933 15.08842421 60394,6917.873,95.437,540.711,538.765,0.0
53401.0,STARLINK-4525,PAYLOAD,2023-09-07 08:54:35,15.08842408,0.0001363,53.2159,268.6549,90.9087,269.2061,0.00010464,1.378e-05,0.0,0 STARLINK-4525,1 53401U 22097P   23250.37123847  .00001378  00000-0  10464-3 0  9997,2 53401  53.2159 268.6549 0001363  90.9087 269.2061 15.08842408 59994,6917.873,95.437,540.681,538.795,0.0
53401.0,STARLINK-4525,PAYLOAD,2023-09-07 18:26:53,15.08839362,0.00014,53.2164,266.8694,87.358,272.7573,5.6133e-05,6.06e-06,0.0,0 STARLINK-4525,1 53401U 22097P   23250.76868024  .00000606  00000-0  56133-4 0  9990,2 53401  53.2164 266.8694 0001400  87.3580 272.7573 15.08839362 60546,6917.882,95.438,540.716,538.779,0.0
53401.0,STARLINK-4525,PAYLOAD,2023-09-08 08:45:22,15.08842671,0.000128,53.2161,264.1932,88.3821,271.7318,8.379e-05,1.046e-05,0.0,0 STARLINK-4525,1 53401U 22097P   23251.36483959  .00001046  00000-0  83790-4 0  9995,2 53401  53.2161 264.1932 0001280  88.3821 271.7318 15.08842671 60637,6917.872,95.437,540.623,538.852,0.0
53401.0,STARLINK-4525,PAYLOAD,2023-09-08 18:17:40,15.08844509,0.0001336,53.2161,262.4091,85.9716,274.1429,9.1422e-05,1.168e-05,0.0,0 STARLINK-4525,1 53401U 22097P   23251.76227892  .00001168  00000-0  91422-4 0  9997,2 53401  53.2161 262.4091 0001336  85.9716 274.1429 15.08844509 60207,6917.867,95.437,540.656,538.807,0.0
53401.0,STARLINK-4525,PAYLOAD,2023-09-09 11:46:55,15.08850335,0.0001369,53.2156,259.1386,87.2456,272.8693,0.00024419,3.602e-05,0.0,0 STARLINK-4525,1 53401U 22097P   23252.49091633  .00003602  00000-0  24419-3 0  9996,2 53401  53.2156 259.1386 0001369  87.2456 272.8693 15.08850335 60801,6917.849,95.437,540.661,538.767,0.0
53401.0,STARLINK-4525,PAYLOAD,2023-09-10 10:02:19,15.08845326,0.0001396,53.2161,254.9739,95.4613,264.6538,0.00010305,1.353e-05,0.0,0 STARLINK-4525,1 53401U 22097P   23253.41827696  .00001353  00000-0  10305-3 0  9995,2 53401  53.2161 254.9739 0001396  95.4613 264.6538 15.08845326 60450,6917.864,95.437,540.695,538.763,0.0
